{"type": "FeatureCollection", "features": [ {"type": "Feature", "properties": {"norad_id": 66911, "name": "1998-067XX", "group": "stations", "lat": -51.50914131008967, "lon": 59.29105611739803, "alt_km": 414.3908861330028, "timestamp": "2025-12-12T07:43:19.278829+00:00", "meta": {"OBJECT_NAME": "1998-067XX", "OBJECT_ID": "1998-067XX", "EPOCH": "2025-12-11T19:43:54.579072", "MEAN_MOTION": 15.51811503, "ECCENTRICITY": 0.00051158, "INCLINATION": 51.6297, "RA_OF_ASC_NODE": 146.9125, "ARG_OF_PERICENTER": 205.0916, "MEAN_ANOMALY": 154.9826, "EPHEMERIS_TYPE": 0, "CLASSIFICATION_TYPE": "U", "NORAD_CAT_ID": 66911, "ELEMENT_SET_NO": 999, "REV_AT_EPOCH": 146, "BSTAR": 0.0013559752, "MEAN_MOTION_DOT": 0.0008298, "MEAN_MOTION_DDOT": 0}, "tle": {"line1": "1 66911U 98067XX  25345.82215948  .00082980  00000+0  13560-2 0  9994", "line2": "2 66911  51.6297 146.9125 0005115 205.0916 154.9826 15.51811503  1464"}}, "geometry": {"type": "Point", "coordinates": [59.29105611739803, -51.50914131008967]}}, {"type": "Feature", "properties": {"norad_id": 66912, "name": "1998-067XY", "group": "stations", "lat": -48.468315528440236, "lon": 27.92004786668496, "alt_km": 415.48514946225714, "timestamp": "2025-12-12T07:43:19.278840+00:00", "meta": {"OBJECT_NAME": "1998-067XY", "OBJECT_ID": "1998-067XY", "EPOCH": "2025-12-11T19:48:45.131904", "MEAN_MOTION": 15.51001955, "ECCENTRICITY": 0.00047052, "INCLINATION": 51.6304, "RA_OF_ASC_NODE": 146.936, "ARG_OF_PERICENTER": 217.5082, "MEAN_ANOMALY": 142.5579, "EPHEMERIS_TYPE": 0, "CLASSIFICATION_TYPE": "U", "NORAD_CAT_ID": 66912, "ELEMENT_SET_NO": 999, "REV_AT_EPOCH": 146, "BSTAR": 0.00099420433, "MEAN_MOTION_DOT": 0.0005879, "MEAN_MOTION_DDOT": 0}, "tle": {"line1": "1 66912U 98067XY  25345.82552236  .00058790  00000+0  99420-3 0  9991", "line2": "2 66912  51.6304 146.9360 0004705 217.5082 142.5579 15.51001955  1461"}}, "geometry": {"type": "Point", "coordinates": [27.92004786668496, -48.468315528440236]}}]}